STARLINK-30036          
1 56692U 23067E   23159.62564577  .00005756  00000+0  10083-3 0  9995
2 56692  43.0002 345.7686 0001132 217.0901 142.9881 15.51425460  3228
STARLINK-30067          
1 56693U 23067F   23159.62532741 -.00194078  00000+0 -32370-2 0  9994
2 56693  43.0002 345.7664 0001930 270.7589  89.3051 15.51823024  4355
STARLINK-30126          
1 56694U 23067G   23159.58334491 -.00138159  00000+0 -24744-2 0  9996
2 56694  43.0006 346.0173 0002209 235.1697 247.7502 15.49611412  3492
STARLINK-30121          
1 56695U 23067H   23159.62556258 -.00672498  00000+0 -12643-1 0  9992
2 56695  43.0004 345.7676 0001922 243.0423 117.0241 15.50204798  4353
STARLINK-30118          
1 56696U 23067J   23159.55244566  .00256431  32993-4  71328-3 0  9992
2 56696  43.0014 343.3825 0008491 316.9663  43.0548 15.92939950  4112
STARLINK-30130          
1 56697U 23067K   23159.58334491 -.00008458  00000+0 -14370-3 0  9992
2 56697  43.0005 346.0018 0000999 235.7655 253.6667 15.49555957  3495
STARLINK-30068          
1 56698U 23067L   23159.58334491  .00264527  00000+0  16613-2 0  9993
2 56698  43.0020 345.2856 0008438 296.4054 123.6510 15.75145861  3500
STARLINK-30127          
1 56699U 23067M   23159.58334491 -.00001147  00000+0 -14307-4 0  9993
2 56699  43.0006 346.0142 0001620 245.0730 239.6402 15.49551804  3494
STARLINK-30053          
1 56700U 23067N   23159.58334491 -.00033278  00000+0 -58453-3 0  9995
2 56700  43.0004 346.0124 0000942 243.2418 242.0587 15.49567978  3495
STARLINK-30125          
1 56701U 23067P   23159.58334491  .00110223  00000+0  19610-2 0  9991
2 56701  43.0004 346.0059 0002176 260.4736 230.5685 15.49056039  3490
STARLINK-30117          
1 56702U 23067Q   23159.58334491  .00045911  00000+0  81330-3 0  9992
2 56702  43.0006 346.0108 0001693 268.1139 218.3610 15.49535058  3498
STARLINK-30132          
1 56703U 23067R   23159.62479093  .00063280  00000+0  10411-2 0  9996
2 56703  42.9998 345.7630 0002051 330.6641  29.4104 15.51497055  4357
STARLINK-30066          
1 56704U 23067S   23159.58334491  .00001308  00000+0  29084-4 0  9995
2 56704  43.0005 345.9992 0001730 209.1295 281.4848 15.49550276  3491
STARLINK-30080          
1 56705U 23067T   23159.56690393 -.00274644  00000+0 -25211-2 0  9993
2 56705  43.0012 345.3018 0002652 285.4236  74.6337 15.67645914  4354
STARLINK-30079          
1 56706U 23067U   23159.62456185  .00073393  00000+0  11991-2 0  9996
2 56706  42.9997 345.7597 0001646 337.9912  22.0877 15.51635035  4359
STARLINK-30070          
1 56707U 23067V   23159.62473274 -.00230060  00000+0 -39447-2 0  9999
2 56707  43.0001 345.7616 0007553 270.1047  89.8948 15.51145466  4354
STARLINK-30071          
1 56708U 23067W   23159.58334491  .00001267  00000+0  28355-4 0  9993
2 56708  43.0005 346.0011 0001195 251.3949 238.6306 15.49549647  3492
STARLINK-30085          
1 56709U 23067X   23159.58334491  .00111109  00000+0  19472-2 0  9999
2 56709  43.0005 346.0036 0000848 269.8754 218.9476 15.49481151  3496
ONEWEB-0561             
1 56710U 23068A   23159.47783285 -.00115013  00000+0 -27859-1 0  9996
2 56710  86.9000 132.7497 0015250 151.1894 209.0158 14.53847623  2931
ONEWEB-0668             
1 56711U 23068B   23159.41290259  .00002038  00000+0  24307-3 0  9992
2 56711  86.6788 132.4816 0016232 150.6729 209.5409 14.83687068  2949
ONEWEB-0676             
1 56712U 23068C   23159.41519239  .00002051  00000+0  24571-3 0  9993
2 56712  86.6750 132.4725 0015930 150.6016 209.6106 14.83505092  2942
ONEWEB-0677             
1 56713U 23068D   23159.58334491 -.01062801  00000+0 -27263+0 0  9996
2 56713  86.8690 132.6716 0011534 142.7662  63.2432 14.53725606  1302
ONEWEB-0678             
1 56714U 23068E   23159.42504424  .00002201  00000+0  26919-3 0  9991
2 56714  86.6772 132.4816 0012246 148.3509 211.8452 14.82726080  2947
ONEWEB-0679             
1 56715U 23068F   23159.41228965  .00002007  00000+0  23898-3 0  9991
2 56715  86.6787 132.4810 0016480 150.3078 209.9084 14.83734976  2949
ONEWEB-0680             
1 56716U 23068G   23159.41561454  .00002054  00000+0  24628-3 0  9999
2 56716  86.6753 132.4737 0015389 151.7313 208.4749 14.83471634  2946
ONEWEB-0681             
1 56717U 23068H   23159.42151554  .00002069  00000+0  25111-3 0  9991
2 56717  86.6772 132.4822 0013017 152.3037 207.8882 14.83010918  2944
ONEWEB-0682             
1 56718U 23068J   23159.42212151  .00002078  00000+0  25253-3 0  9990
2 56718  86.6772 132.4840 0012854 152.0443 208.1473 14.82956595  2940
ONEWEB-0683             
1 56719U 23068K   23159.42311902  .00002043  00000+0  24866-3 0  9996
2 56719  86.6770 132.4844 0012606 150.9996 209.1930 14.82879123  2948
ONEWEB-0684             
1 56720U 23068L   23159.42447901  .00001988  00000+0  24255-3 0  9996
2 56720  86.6772 132.4814 0012286 148.9788 211.2163 14.82772554  2941
ONEWEB-0686             
1 56721U 23068M   23159.41364526  .00002036  00000+0  24312-3 0  9996
2 56721  86.6749 132.4713 0016048 150.9010 209.3111 14.83627300  2945
ONEWEB-0694             
1 56722U 23068N   23159.41425705  .00002028  00000+0  24249-3 0  9994
2 56722  86.6791 132.4833 0015814 150.4976 209.7144 14.83577285  2948
ONEWEB-0696             
1 56723U 23068P   23159.42408086  .00002005  00000+0  24455-3 0  9993
2 56723  86.6768 132.4850 0012399 149.6243 210.5701 14.82801538  2943
ONEWEB-0703             
1 56724U 23068Q   23159.42360033 -.00001737  00000+0 -21799-3 0  9994
2 56724  86.6776 132.4814 0012571 149.7483 210.4469 14.82843420  2948
ONEWEB-0721             
1 56725U 23068R   23159.42569953  .00001891  00000+0  23109-3 0  9993
2 56725  86.6770 132.4820 0012049 147.9571 212.2387 14.82676824  2949
IRIDIUM 181             
1 56726U 23068S   23159.44840150  .00001573  00000+0  20298-3 0  9990
2 56726  86.6759 132.4944 0002787 117.9834 242.1670 14.80358964  2948
IRIDIUM 177             
1 56727U 23068T   23159.44261895  .00000067  00000+0  52928-5 0  9998
2 56727  86.6756 132.4883 0002702 110.5174 249.6338 14.80314022  2941
IRIDIUM 174             
1 56728U 23068U   23159.57238370  .00001736  00000+0  22456-3 0  9990
2 56728  86.6803 132.4427 0002493 106.8521 253.2974 14.80314733  2968
IRIDIUM 178             
1 56729U 23068V   23159.43148135  .00001527  00000+0  19756-3 0  9992
2 56729  86.6748 132.4819 0002133 103.3360 256.8100 14.80242002  2943
IRIDIUM 179             
1 56730U 23068W   23159.42560730  .00000055  00000+0  37735-5 0  9996
2 56730  86.6790 132.4884 0002069 104.9961 255.1490 14.80217031  2944
2023-069A               
1 56731U 23069A   23159.59324370  .00007072  00000+0  23939-3 0  9999
2 56731  41.0050 253.7497 0032803 265.4818  94.2255 15.30341214  2790
2023-069B               
1 56732U 23069B   23159.58754607  .00020513  00000+0  66501-3 0  9996
2 56732  41.0050 253.7057 0031005 265.3101  94.4178 15.31038525  2795
2023-069C               
1 56733U 23069C   23159.58620594  .00010630  00000+0  34943-3 0  9998
2 56733  41.0054 253.6949 0030453 265.6101  94.1240 15.30990499  2791
CZ-2C R/B               
1 56734U 23069D   23159.59516767  .00023545  00000+0  43533-3 0  9990
2 56734  41.1969 251.4274 0053302 170.6622 189.5210 15.46908457  2826
CZ-2C DEB               
1 56735U 23069E   23159.56274674  .00041930  00000+0  28148-2 0  9998
2 56735  41.1426 260.3202 0210832 248.8442 108.9717 14.89732778  2729
CZ-2C DEB               
1 56736U 23069F   23159.55040554  .00060655  00000+0  23765-2 0  9991
2 56736  40.8550 256.1676 0120023 294.6733  64.1622 15.18411384  2779
CZ-2C DEB               
1 56737U 23069G   23159.50789178  .00080507  00000+0  28268-2 0  9990
2 56737  41.0973 255.6588 0115065 301.8487  57.1174 15.22288178  2733
2023-069H               
1 56738U 23069H   23159.54280062  .00045604  00000+0  29939-2 0  9998
2 56738  40.9049 260.3748 0203380 247.7089 110.2038 14.91471354  2725
PROGRESS-MS 23          
1 56740U 23071A   23158.65606645  .00015765  00000+0  27796-3 0  9999
2 56740  51.6424  15.7833 0005343  62.5595   3.3978 15.50568597400319
2023-072A               
1 56743U 23072A   23159.57688737  .00003669  00000+0  24785-3 0  9992
2 56743  97.5434 346.6179 0007077 244.5564 115.4932 15.07183837  2130
SNIPE 4                 
1 56744U 23072B   23159.57641711  .00005473  00000+0  36690-3 0  9997
2 56744  97.5520 346.6347 0007078 245.5955 114.4534 15.07255798  2133
SNIPE 2                 
1 56745U 23072C   23159.57519144  .00005495  00000+0  36698-3 0  9994
2 56745  97.5529 346.6376 0007364 249.6234 110.4204 15.07389858  2133
2023-072D               
1 56746U 23072D   23159.57380959  .00006195  00000+0  41142-3 0  9993
2 56746  97.5529 346.6392 0007687 253.5687 106.4696 15.07546493  2136
2023-072E               
1 56747U 23072E   23159.57242911  .00005749  00000+0  38067-3 0  9995
2 56747  97.5530 346.6408 0008183 256.8285 103.2030 15.07686095  2139
2023-072F               
1 56748U 23072F   23159.57199388  .00004623  00000+0  30664-3 0  9990
2 56748  97.5323 346.6052 0008484 257.5617 102.4661 15.07718172  2139
2023-072G               
1 56749U 23072G   23159.57065801  .00005323  00000+0  35100-3 0  9991
2 56749  97.5332 346.6080 0008865 260.7803  99.2423 15.07868678  2133
2023-072H               
1 56750U 23072H   23159.57318822  .00005283  00000+0  28824-3 0  9997
2 56750  97.5388 346.7607 0012907 297.2214  62.7702 15.14721339  2141
AXIOM-2 DEB             
1 56751U 23070B   23155.18545233  .00137659  00000+0  93325-3 0  9998
2 56751  51.4359  32.6116 0064812 169.8500 272.9083 15.71117998   653
ELECTRON KICK STAGE R/B 
1 56752U 23073A   23159.36281201  .00009841  00000+0  64177-3 0  9992
2 56752  32.7355 123.6286 0012544 337.0633  22.9475 15.06807237  1998
TROPICS-03              
1 56753U 23073B   23159.29823194  .00007478  00000+0  49050-3 0  9995
2 56753  32.7354 124.0641 0010915 347.2827  12.7566 15.06580859  1969
